[{"OBJECT_NAME":"ONEWEB-0582","OBJECT_ID":"2022-166H","EPOCH":"2026-05-07T02:29:24.019872","MEAN_MOTION":13.21827123,"ECCENTRICITY":0.0002362,"INCLINATION":87.9234,"RA_OF_ASC_NODE":252.1512,"ARG_OF_PERICENTER":106.6183,"MEAN_ANOMALY":253.5211,"EPHEMERIS_TYPE":0,"CLASSIFICATION_TYPE":"U","NORAD_CAT_ID":54649,"ELEMENT_SET_NO":999,"REV_AT_EPOCH":16609,"BSTAR":-0.00014588,"MEAN_MOTION_DOT":-4.7e-07,"MEAN_MOTION_DDOT":0.0},{"OBJECT_NAME":"ONEWEB-0583","OBJECT_ID":"2022-166J","EPOCH":"2026-05-07T06:24:21.769632","MEAN_MOTION":13.2182865,"ECCENTRICITY":0.0002055,"INCLINATION":87.9234,"RA_OF_ASC_NODE":252.1422,"ARG_OF_PERICENTER":101.8879,"MEAN_ANOMALY":258.2486,"EPHEMERIS_TYPE":0,"CLASSIFICATION_TYPE":"U","NORAD_CAT_ID":54650,"ELEMENT_SET_NO":999,"REV_AT_EPOCH":16612,"BSTAR":8.1751e-05,"MEAN_MOTION_DOT":4.7e-07,"MEAN_MOTION_DDOT":0.0},{"OBJECT_NAME":"ONEWEB-0584","OBJECT_ID":"2022-166K","EPOCH":"2026-05-07T06:53:27.513600","MEAN_MOTION":13.21821617,"ECCENTRICITY":0.0002008,"INCLINATION":87.9232,"RA_OF_ASC_NODE":252.1237,"ARG_OF_PERICENTER":104.8025,"MEAN_ANOMALY":255.3332,"EPHEMERIS_TYPE":0,"CLASSIFICATION_TYPE":"U","NORAD_CAT_ID":54651,"ELEMENT_SET_NO":999,"REV_AT_EPOCH":16611,"BSTAR":0.0010692,"MEAN_MOTION_DOT":4.55e-06,"MEAN_MOTION_DDOT":0.0},{"OBJECT_NAME":"ONEWEB-0585","OBJECT_ID":"2022-166L","EPOCH":"2026-05-07T02:00:19.680768","MEAN_MOTION":13.21826723,"ECCENTRICITY":0.0001789,"INCLINATION":87.9236,"RA_OF_ASC_NODE":252.1504,"ARG_OF_PERICENTER":97.664,"MEAN_ANOMALY":262.4697,"EPHEMERIS_TYPE":0,"CLASSIFICATION_TYPE":"U","NORAD_CAT_ID":54652,"ELEMENT_SET_NO":999,"REV_AT_EPOCH":16609,"BSTAR":-2.5456e-05,"MEAN_MOTION_DOT":3e-08,"MEAN_MOTION_DDOT":0.0},{"OBJECT_NAME":"ONEWEB-0586","OBJECT_ID":"2022-166M","EPOCH":"2026-05-07T05:57:44.935200","MEAN_MOTION":13.218263,"ECCENTRICITY":0.000211,"INCLINATION":87.9233,"RA_OF_ASC_NODE":252.1438,"ARG_OF_PERICENTER":100.1449,"MEAN_ANOMALY":259.9923,"EPHEMERIS_TYPE":0,"CLASSIFICATION_TYPE":"U","NORAD_CAT_ID":54653,"ELEMENT_SET_NO":999,"REV_AT_EPOCH":16611,"BSTAR":-1.0145e-05,"MEAN_MOTION_DOT":9e-08,"MEAN_MOTION_DDOT":0.0},{"OBJECT_NAME":"ONEWEB-0587","OBJECT_ID":"2022-166N","EPOCH":"2026-05-07T06:12:16.409664","MEAN_MOTION":13.21824535,"ECCENTRICITY":0.0001472,"INCLINATION":87.9245,"RA_OF_ASC_NODE":252.1107,"ARG_OF_PERICENTER":101.4769,"MEAN_ANOMALY":258.6531,"EPHEMERIS_TYPE":0,"CLASSIFICATION_TYPE":"U","NORAD_CAT_ID":54654,"ELEMENT_SET_NO":999,"REV_AT_EPOCH":16627,"BSTAR":-0.00012563,"MEAN_MOTION_DOT":-3.9e-07,"MEAN_MOTION_DDOT":0.0},{"OBJECT_NAME":"ONEWEB-0589","OBJECT_ID":"2022-166P","EPOCH":"2026-05-07T02:14:54.010752","MEAN_MOTION":13.21826022,"ECCENTRICITY":0.000271,"INCLINATION":87.9229,"RA_OF_ASC_NODE":252.1616,"ARG_OF_PERICENTER":111.0259,"MEAN_ANOMALY":249.1165,"EPHEMERIS_TYPE":0,"CLASSIFICATION_TYPE":"U","NORAD_CAT_ID":54655,"ELEMENT_SET_NO":999,"REV_AT_EPOCH":16611,"BSTAR":-1.1191e-05,"MEAN_MOTION_DOT":8e-08,"MEAN_MOTION_DDOT":0.0},{"OBJECT_NAME":"ONEWEB-0590","OBJECT_ID":"2022-166Q","EPOCH":"2026-05-07T06:29:00.808800","MEAN_MOTION":13.21827815,"ECCENTRICITY":0.0001733,"INCLINATION":87.924,"RA_OF_ASC_NODE":252.1125,"ARG_OF_PERICENTER":115.1808,"MEAN_ANOMALY":244.9506,"EPHEMERIS_TYPE":0,"CLASSIFICATION_TYPE":"U","NORAD_CAT_ID":54656,"ELEMENT_SET_NO":999,"REV_AT_EPOCH":16612,"BSTAR":-0.0001564,"MEAN_MOTION_DOT":-5.2e-07,"MEAN_MOTION_DDOT":0.0},{"OBJECT_NAME":"ONEWEB-0591","OBJECT_ID":"2022-166R","EPOCH":"2026-05-07T06:46:09.621120","MEAN_MOTION":13.21829055,"ECCENTRICITY":0.0001877,"INCLINATION":87.9238,"RA_OF_ASC_NODE":252.1269,"ARG_OF_PERICENTER":101.9318,"MEAN_ANOMALY":258.2027,"EPHEMERIS_TYPE":0,"CLASSIFICATION_TYPE":"U","NORAD_CAT_ID":54657,"ELEMENT_SET_NO":999,"REV_AT_EPOCH":16615,"BSTAR":0.0003927,"MEAN_MOTION_DOT":1.75e-06,"MEAN_MOTION_DDOT":0.0},{"OBJECT_NAME":"ONEWEB-0592","OBJECT_ID":"2022-166S","EPOCH":"2026-05-07T06:51:00.334656","MEAN_MOTION":13.21828511,"ECCENTRICITY":0.0001921,"INCLINATION":87.9243,"RA_OF_ASC_NODE":252.1019,"ARG_OF_PERICENTER":100.3413,"MEAN_ANOMALY":259.7938,"EPHEMERIS_TYPE":0,"CLASSIFICATION_TYPE":"U","NORAD_CAT_ID":54658,"ELEMENT_SET_NO":999,"REV_AT_EPOCH":16603,"BSTAR":0.0002496,"MEAN_MOTION_DOT":1.16e-06,"MEAN_MOTION_DDOT":0.0},{"OBJECT_NAME":"ONEWEB-0593","OBJECT_ID":"2022-166T","EPOCH":"2026-05-07T07:22:31.274688","MEAN_MOTION":13.21825003,"ECCENTRICITY":0.0002043,"INCLINATION":87.9232,"RA_OF_ASC_NODE":252.1121,"ARG_OF_PERICENTER":99.3163,"MEAN_ANOMALY":260.8202,"EPHEMERIS_TYPE":0,"CLASSIFICATION_TYPE":"U","NORAD_CAT_ID":54659,"ELEMENT_SET_NO":999,"REV_AT_EPOCH":16614,"BSTAR":0.00013406000000000003,"MEAN_MOTION_DOT":6.8e-07,"MEAN_MOTION_DDOT":0.0},{"OBJECT_NAME":"ONEWEB-0594","OBJECT_ID":"2022-166U","EPOCH":"2026-05-07T06:02:35.526048","MEAN_MOTION":13.21825726,"ECCENTRICITY":0.0001843,"INCLINATION":87.9231,"RA_OF_ASC_NODE":252.1406,"ARG_OF_PERICENTER":97.8539,"MEAN_ANOMALY":262.2804,"EPHEMERIS_TYPE":0,"CLASSIFICATION_TYPE":"U","NORAD_CAT_ID":54660,"ELEMENT_SET_NO":999,"REV_AT_EPOCH":16615,"BSTAR":-8.4351e-05,"MEAN_MOTION_DOT":-2.2e-07,"MEAN_MOTION_DDOT":0.0},{"OBJECT_NAME":"ONEWEB-0595","OBJECT_ID":"2022-166V","EPOCH":"2026-05-07T07:17:39.839712","MEAN_MOTION":13.21824489,"ECCENTRICITY":0.0001691,"INCLINATION":87.9241,"RA_OF_ASC_NODE":252.1071,"ARG_OF_PERICENTER":99.9208,"MEAN_ANOMALY":260.2117,"EPHEMERIS_TYPE":0,"CLASSIFICATION_TYPE":"U","NORAD_CAT_ID":54661,"ELEMENT_SET_NO":999,"REV_AT_EPOCH":16613,"BSTAR":0.00016929,"MEAN_MOTION_DOT":8.3e-07,"MEAN_MOTION_DDOT":0.0},{"OBJECT_NAME":"ONEWEB-0596","OBJECT_ID":"2022-166W","EPOCH":"2026-05-07T06:41:19.209984","MEAN_MOTION":13.21828946,"ECCENTRICITY":0.0001795,"INCLINATION":87.9237,"RA_OF_ASC_NODE":252.1259,"ARG_OF_PERICENTER":99.7964,"MEAN_ANOMALY":260.3373,"EPHEMERIS_TYPE":0,"CLASSIFICATION_TYPE":"U","NORAD_CAT_ID":54662,"ELEMENT_SET_NO":999,"REV_AT_EPOCH":16613,"BSTAR":0.00041798000000000003,"MEAN_MOTION_DOT":1.86e-06,"MEAN_MOTION_DDOT":0.0},{"OBJECT_NAME":"ONEWEB-0597","OBJECT_ID":"2022-166X","EPOCH":"2026-05-07T06:14:40.085952","MEAN_MOTION":13.21827663,"ECCENTRICITY":0.0002106,"INCLINATION":87.923,"RA_OF_ASC_NODE":252.1336,"ARG_OF_PERICENTER":102.5499,"MEAN_ANOMALY":257.5871,"EPHEMERIS_TYPE":0,"CLASSIFICATION_TYPE":"U","NORAD_CAT_ID":54663,"ELEMENT_SET_NO":999,"REV_AT_EPOCH":16613,"BSTAR":-0.0014695,"MEAN_MOTION_DOT":-5.94e-06,"MEAN_MOTION_DDOT":0.0},{"OBJECT_NAME":"ONEWEB-0600","OBJECT_ID":"2022-166Y","EPOCH":"2026-05-07T02:10:03.285120","MEAN_MOTION":13.2182502,"ECCENTRICITY":0.000208,"INCLINATION":87.9232,"RA_OF_ASC_NODE":252.159,"ARG_OF_PERICENTER":95.0898,"MEAN_ANOMALY":265.0473,"EPHEMERIS_TYPE":0,"CLASSIFICATION_TYPE":"U","NORAD_CAT_ID":54664,"ELEMENT_SET_NO":999,"REV_AT_EPOCH":16608,"BSTAR":-0.00024941,"MEAN_MOTION_DOT":-9e-07,"MEAN_MOTION_DDOT":0.0}]