ONEWEB-0582             
1 54649U 22166H   26127.10375023 -.00000047  00000+0 -14588-3 0  9995
2 54649  87.9234 252.1512 0002362 106.6183 253.5211 13.21827123166090
ONEWEB-0583             
1 54650U 22166J   26127.26691863  .00000047  00000+0  81751-4 0  9992
2 54650  87.9234 252.1422 0002055 101.8879 258.2486 13.21828650166126
ONEWEB-0584             
1 54651U 22166K   26127.28712400  .00000455  00000+0  10692-2 0  9993
2 54651  87.9232 252.1237 0002008 104.8025 255.3332 13.21821617166116
ONEWEB-0585             
1 54652U 22166L   26127.08356112  .00000003  00000+0 -25456-4 0  9992
2 54652  87.9236 252.1504 0001789  97.6640 262.4697 13.21826723166098
ONEWEB-0586             
1 54653U 22166M   26127.24843675  .00000009  00000+0 -10145-4 0  9991
2 54653  87.9233 252.1438 0002110 100.1449 259.9923 13.21826300166115
ONEWEB-0587             
1 54654U 22166N   26127.25852326 -.00000039  00000+0 -12563-3 0  9995
2 54654  87.9245 252.1107 0001472 101.4769 258.6531 13.21824535166277
ONEWEB-0589             
1 54655U 22166P   26127.09368068  .00000008  00000+0 -11191-4 0  9995
2 54655  87.9229 252.1616 0002710 111.0259 249.1165 13.21826022166116
ONEWEB-0590             
1 54656U 22166Q   26127.27014825 -.00000052  00000+0 -15640-3 0  9997
2 54656  87.9240 252.1125 0001733 115.1808 244.9506 13.21827815166128
ONEWEB-0591             
1 54657U 22166R   26127.28205580  .00000175  00000+0  39270-3 0  9998
2 54657  87.9238 252.1269 0001877 101.9318 258.2027 13.21829055166150
ONEWEB-0592             
1 54658U 22166S   26127.28542054  .00000116  00000+0  24960-3 0  9994
2 54658  87.9243 252.1019 0001921 100.3413 259.7938 13.21828511166039
ONEWEB-0593             
1 54659U 22166T   26127.30730642  .00000068  00000+0  13406-3 0  9999
2 54659  87.9232 252.1121 0002043  99.3163 260.8202 13.21825003166149
ONEWEB-0594             
1 54660U 22166U   26127.25180007 -.00000022  00000+0 -84351-4 0  9999
2 54660  87.9231 252.1406 0001843  97.8539 262.2804 13.21825726166150
ONEWEB-0595             
1 54661U 22166V   26127.30393333  .00000083  00000+0  16929-3 0  9994
2 54661  87.9241 252.1071 0001691  99.9208 260.2117 13.21824489166135
ONEWEB-0596             
1 54662U 22166W   26127.27869456  .00000186  00000+0  41798-3 0  9991
2 54662  87.9237 252.1259 0001795  99.7964 260.3373 13.21828946166138
ONEWEB-0597             
1 54663U 22166X   26127.26018618 -.00000594  00000+0 -14695-2 0  9997
2 54663  87.9230 252.1336 0002106 102.5499 257.5871 13.21827663166137
ONEWEB-0600             
1 54664U 22166Y   26127.09031580 -.00000090  00000+0 -24941-3 0  9999
2 54664  87.9232 252.1590 0002080  95.0898 265.0473 13.21825020166083
